[{"OBJECT_NAME":"CONTECSAT-1","OBJECT_ID":"2024-043V","EPOCH":"2026-03-09T22:02:35.535840","MEAN_MOTION":15.34615346,"ECCENTRICITY":0.00100896,"INCLINATION":97.5476,"RA_OF_ASC_NODE":207.3735,"ARG_OF_PERICENTER":223.9905,"MEAN_ANOMALY":136.0535,"EPHEMERIS_TYPE":0,"CLASSIFICATION_TYPE":"U","NORAD_CAT_ID":59117,"ELEMENT_SET_NO":999,"REV_AT_EPOCH":11201,"BSTAR":0.0004369392,"MEAN_MOTION_DOT":0.00014607,"MEAN_MOTION_DDOT":0},{"OBJECT_NAME":"STARLINK-32426","OBJECT_ID":"2024-193W","EPOCH":"2026-03-09T12:03:19.501920","MEAN_MOTION":15.30175538,"ECCENTRICITY":0.00012591,"INCLINATION":53.1606,"RA_OF_ASC_NODE":92.1809,"ARG_OF_PERICENTER":78.047,"MEAN_ANOMALY":282.0672,"EPHEMERIS_TYPE":0,"CLASSIFICATION_TYPE":"U","NORAD_CAT_ID":61681,"ELEMENT_SET_NO":999,"REV_AT_EPOCH":7649,"BSTAR":-6.1997625e-5,"MEAN_MOTION_DOT":-2.193e-5,"MEAN_MOTION_DDOT":0}]
